EYESAT A (AO-27)        
1 22825U 93061C   26181.63500941  .00000104  00000+0  56396-4 0  9991
2 22825  98.6876 249.0434 0009400  65.0046 295.2112 14.30945711708928
ITAMSAT (IO-26)         
1 22826U 93061D   26181.61040878  .00000102  00000+0  55350-4 0  9995
2 22826  98.6824 248.9377 0009729  49.7040 310.4992 14.31372958709232
RADIO ROSTO (RS15)      
1 23439U 94085A   26181.68541213 -.00000028  00000+0  40218-3 0  9993
2 23439  64.8181 281.3864 0156394   1.3788 358.7538 11.27583406297428
JAS-2 (FO-29)           
1 24278U 96046B   26181.84096784 -.00000024  00000+0  90797-5 0  9995
2 24278  98.5227  28.8419 0350829  61.1047 302.4815 13.53274923475015
FORTE                   
1 24920U 97047A   26181.47421825  .00000148  00000+0  82832-4 0  9994
2 24920  69.9543 344.0080 0024603 261.3118  98.5217 14.27950242500587
TECHSAT 1B (GO-32)      
1 25397U 98043D   26181.48079174  .00000061  00000+0  46516-4 0  9990
2 25397  99.0072 174.5750 0001700 138.6209 221.5098 14.24430945453220
ISS (ZARYA)             
1 25544U 98067A   26181.79873647  .00005824  00000+0  11188-3 0  9999
2 25544  51.6310 232.7115 0004333 251.8365 108.2152 15.49493260573863
IMAGE                   
1 26113U 00017A   26178.35421053 -.00000086  00000+0  00000+0 0  9991
2 26113  94.2374 315.5053 7424862 286.6524   9.3238  1.68666239161675
CLUSTER II-FM7 (SAMBA)  
1 26410U 00041A   26181.52661441  .00015728  00000+0  00000+0 0  9996
2 26410 149.8901  53.0517 9069081 270.4354 359.5654  0.44858661 20366
CLUSTER II-FM8 (TANGO)  
1 26464U 00045B   26179.69554141  .00010301  00000+0  00000+0 0  9994
2 26464 150.1134  53.8490 9072079 271.0645   2.4192  0.44420805 20363
ODIN                    
1 26702U 01007A   26181.09336895  .00225491  00000+0  11434-2 0  9993
2 26702  97.3784 222.9075 0006012 133.8248 226.3518 15.80880084391431
OMNI-M1                 
1 26857U 01026A   26181.47767794  .00000008  00000+0  00000+0 0  9992
2 26857  44.8272 242.2006 0013842  55.9165 304.2837  3.92401966206096
PCSAT (NO-44)           
1 26931U 01043C   26181.42991921  .00000101  00000+0  68747-4 0  9991
2 26931  67.0490 210.0201 0006029 265.4507  94.5906 14.31960263292349
PROBA-1                 
1 26958U 01049B   26181.87639395  .00001443  00000+0  96105-4 0  9998
2 26958  97.9598 190.8868 0056735  77.1319 283.6237 15.07553757345685
SAUDISAT 1C (SO-50)     
1 27607U 02058C   26181.23705801  .00000912  00000+0  12485-3 0  9995
2 27607  64.5520  88.6095 0074955 260.0398  99.2242 14.83073203266395
CORIOLIS                
1 27640U 03001A   26181.44460005  .00000094  00000+0  64880-4 0  9996
2 27640  98.7127 188.1270 0014160 169.9782 190.1680 14.19948335216108
CUTE-1 (CO-55)          
1 27844U 03031E   26180.96278102  .00000311  00000+0  15340-3 0  9994
2 27844  98.6736 189.3610 0010300 142.4898 217.7002 14.24343456193495
CUBESAT XI-IV (CO-57)   
1 27848U 03031J   26180.95765288  .00000265  00000+0  13524-3 0  9993
2 27848  98.6768 189.0585 0009785 160.0224 200.1339 14.23627529193197
MOZHAETS 4 (RS22)       
1 27939U 03042A   26181.87014933  .00000771  00000+0  12697-3 0  9994
2 27939  98.3465   6.6157 0010195 221.0535 246.1373 14.73490694217560
